NOAA 1 [-]              
1 04793U 70106A   22255.12107382 -.00000021  00000+0  14333-3 0  9997
2 04793 101.5491 316.7231 0031924 153.2041 261.8843 12.54007354368453
NOAA 2 (ITOS-D) [-]     
1 06235U 72082A   22255.74493093 -.00000036  00000+0  61159-4 0  9995
2 06235 101.9617 238.5462 0003687 270.7022 264.4063 12.53151249282906
NOAA 3 [-]              
1 06920U 73086A   22256.20891838 -.00000046  00000+0  19645-5 0  9997
2 06920 102.2159 238.0279 0006609 125.9135 246.5585 12.40348232211858
NOAA 4 [-]              
1 07529U 74089A   22255.54910135 -.00000036  00000+0  63680-4 0  9991
2 07529 101.9222 235.4659 0008746 299.8109 167.9457 12.53160070187458
NOAA 5 [-]              
1 09057U 76077A   22255.71173008 -.00000043  00000+0  12222-4 0  9991
2 09057 102.1074 222.7964 0010014 340.7543 192.8200 12.37774108 84534
TIROS N [-]             
1 11060U 78096A   22256.17133461  .00000113  00000+0  75454-4 0  9994
2 11060  98.6274 307.5562 0009597 248.3881 111.6272 14.18411593484281
NOAA 6 [-]              
1 11416U 79057A   22255.77440084  .00000205  00000+0  89893-4 0  9998
2 11416  98.6650 266.7682 0010420   7.7925 352.3419 14.33795133254246
NOAA 7 [-]              
1 12553U 81059A   22256.12027376  .00000021  00000+0  33039-4 0  9998
2 12553  98.9913 301.5926 0010825 222.8676 137.1655 14.17342884130433
NOAA 8 [-]              
1 13923U 83022A   22255.75096060  .00000100  00000+0  57485-4 0  9995
2 13923  98.6937 245.9800 0014366 317.8279  42.1797 14.28829522 54874
NOAA 9 [-]              
1 15427U 84123A   22256.18907632  .00000087  00000+0  67087-4 0  9996
2 15427  99.0546 229.9870 0013830 277.9768  93.6687 14.16221193949261
NOAA 10 [-]             
1 16969U 86073A   22255.54311316  .00000090  00000+0  53315-4 0  9994
2 16969  98.5757 240.1228 0013283  59.9318  49.5750 14.28219203873263
NOAA 11 [-]             
1 19531U 88089A   22255.72222729  .00000027  00000+0  34688-4 0  9992
2 19531  98.4321 240.0382 0010056 289.7038  70.3052 14.15321020753164
NOAA 12 [-]             
1 21263U 91032A   22255.84916276  .00000057  00000+0  41718-4 0  9994
2 21263  98.5189 253.2374 0014856  84.2314 276.0559 14.26008937629188
NOAA 13 [-]             
1 22739U 93050A   22255.48263826  .00000046  00000+0  46688-4 0  9990
2 22739  98.5134 230.9769 0010691  93.5615 266.6781 14.12859679499580
NOAA 14 [-]             
1 23455U 94089A   22255.86178001  .00000026  00000+0  35209-4 0  9996
2 23455  98.4447 277.8255 0010617  75.4323 284.8028 14.14208064429065
NOAA 15 [B]             
1 25338U 98030A   22256.18809215  .00000120  00000+0  68152-4 0  9990
2 25338  98.6394 284.5557 0011119  46.7878 313.4229 14.26169767265771
NOAA 16 [-]             
1 26536U 00055A   22255.82817559  .00000054  00000+0  51066-4 0  9993
2 26536  98.6284 311.6825 0009383 276.7122  83.2983 14.13342328429691
NOAA 17 [-]             
1 27453U 02032A   22255.84264584  .00000100  00000+0  61094-4 0  9999
2 27453  98.6769 200.1051 0012353  22.9340 337.2388 14.25139501 51305
NOAA 18 [B]             
1 28654U 05018A   22256.59315904  .00000168  00000+0  11417-3 0  9993
2 28654  98.9426 326.9336 0015261  83.7604 276.5306 14.12774963892518
NOAA 19 [+]             
1 33591U 09005A   22256.17940913  .00000161  00000+0  11197-3 0  9995
2 33591  99.1418 292.1332 0013019 303.9609  56.0324 14.12608263700832
SUOMI NPP [+]           
1 37849U 11061A   22256.59685007  .00000076  00000+0  57039-4 0  9997
2 37849  98.7356 193.9395 0001203  79.5498  25.4531 14.19542826563699
NOAA 20 [+]             
1 43013U 17073A   22255.83546739  .00000047  00000+0  43188-4 0  9998
2 43013  98.7194 193.0356 0001292 109.4264 250.7052 14.19542502249625
